NORAD_CAT_ID,OBJECT_NAME,OBJECT_TYPE,EPOCH,MEAN_MOTION,ECCENTRICITY,INCLINATION,RA_OF_ASC_NODE,ARG_OF_PERICENTER,MEAN_ANOMALY,BSTAR,MEAN_MOTION_DOT,MEAN_MOTION_DDOT,TLE_LINE0,TLE_LINE1,TLE_LINE2,SEMIMAJOR_AXIS,PERIOD,APOGEE,PERIGEE,DECAYED
54206.0,STARLINK-5264,PAYLOAD,2024-06-09 16:23:25,15.08833713,0.000167,53.2117,303.0827,95.6411,264.4771,3.0472e-05,1.97e-06,0.0,0 STARLINK-5264,1 54206U 22141BB  24161.68293968  .00000197  00000-0  30472-4 0  9999,2 54206  53.2117 303.0827 0001670  95.6411 264.4771 15.08833713 90404,6917.9,95.438,540.92,538.609,0.0
54206.0,STARLINK-5264,PAYLOAD,2024-06-10 13:03:26,15.08851033,0.0001397,53.219,299.2198,95.6429,264.4723,-0.00030868,-5.199e-05,0.0,0 STARLINK-5264,1 54206U 22141BB  24162.54405520 -.00005199  00000-0 -30868-3 0  9991,2 54206  53.2190 299.2198 0001397  95.6429 264.4723 15.08851033 90533,6917.847,95.437,540.678,538.745,0.0
54206.0,STARLINK-5264,PAYLOAD,2024-06-10 14:38:49,15.08850997,0.000144,53.2184,298.9223,96.244,263.8716,-0.00026916,-4.57e-05,0.0,0 STARLINK-5264,1 54206U 22141BB  24162.61029473 -.00004570  00000-0 -26916-3 0  9999,2 54206  53.2184 298.9223 0001440  96.2440 263.8716 15.08850997 90319,6917.847,95.437,540.708,538.716,0.0
54206.0,STARLINK-5264,PAYLOAD,2024-06-10 16:14:12,15.08846932,0.00014,53.2166,298.6232,81.8203,278.2948,7.6078e-05,9.23e-06,0.0,0 STARLINK-5264,1 54206U 22141BB  24162.67653522  .00000923  00000-0  76078-4 0  9994,2 54206  53.2166 298.6232 0001400  81.8203 278.2948 15.08846932 90321,6917.859,95.437,540.693,538.756,0.0
54206.0,STARLINK-5264,PAYLOAD,2024-06-11 12:54:14,15.08834894,0.000127,53.2176,294.7592,92.4381,267.6757,0.00011867,1.601e-05,0.0,0 STARLINK-5264,1 54206U 22141BB  24163.53766517  .00001601  00000-0  11867-3 0  9997,2 54206  53.2176 294.7592 0001270  92.4381 267.6757 15.08834894 90456,6917.896,95.438,540.64,538.882,0.0
54206.0,STARLINK-5264,PAYLOAD,2024-06-12 01:37:18,15.08844987,0.0001132,53.219,292.3785,75.0471,285.0646,7.0156e-05,8.29e-06,0.0,0 STARLINK-5264,1 54206U 22141BB  24164.06757929  .00000829  00000-0  70156-4 0  9991,2 54206  53.2190 292.3785 0001132  75.0471 285.0646 15.08844987 90763,6917.865,95.437,540.513,538.947,0.0
54206.0,STARLINK-5264,PAYLOAD,2024-06-12 12:45:02,15.08824449,0.0001254,53.218,290.3006,88.7555,271.3581,-2.2934e-05,-6.53e-06,0.0,0 STARLINK-5264,1 54206U 22141BB  24164.53127745 -.00000653  00000-0 -22934-4 0  9998,2 54206  53.2180 290.3006 0001254  88.7555 271.3581 15.08824449 90830,6917.928,95.439,540.66,538.925,0.0
54206.0,STARLINK-5264,PAYLOAD,2024-06-12 15:55:48,15.08831458,0.0001286,53.218,289.7033,77.448,282.6656,-4.0668e-05,-9.35e-06,0.0,0 STARLINK-5264,1 54206U 22141BB  24164.66375452 -.00000935  00000-0 -40668-4 0  9999,2 54206  53.2180 289.7033 0001286  77.4480 282.6656 15.08831458 90622,6917.906,95.438,540.661,538.882,0.0
54206.0,STARLINK-5264,PAYLOAD,2024-06-13 12:35:48,15.08843106,0.000137,53.2183,285.8391,86.3937,273.7211,0.00012101,1.639e-05,0.0,0 STARLINK-5264,1 54206U 22141BB  24165.52486542  .00001639  00000-0  12101-3 0  9998,2 54206  53.2183 285.8391 0001370  86.3937 273.7211 15.08843106 90989,6917.871,95.437,540.684,538.788,0.0
54206.0,STARLINK-5264,PAYLOAD,2024-06-13 14:11:11,15.08844276,0.0001357,53.2184,285.5421,88.2962,271.8186,0.00014271,1.984e-05,0.0,0 STARLINK-5264,1 54206U 22141BB  24165.59110498  .00001984  00000-0  14271-3 0  9992,2 54206  53.2184 285.5421 0001357  88.2962 271.8186 15.08844276 90760,6917.867,95.437,540.671,538.794,0.0
54206.0,STARLINK-5264,PAYLOAD,2024-06-13 15:46:34,15.08850319,0.0001258,53.2168,285.2436,80.2531,279.8603,0.00015072,2.112e-05,0.0,0 STARLINK-5264,1 54206U 22141BB  24165.65734204  .00002112  00000-0  15072-3 0  9990,2 54206  53.2168 285.2436 0001258  80.2531 279.8603 15.08850319 90777,6917.849,95.437,540.584,538.844,0.0
54206.0,STARLINK-5264,PAYLOAD,2024-06-14 14:01:58,15.08840247,0.0001178,53.2161,281.0804,83.7629,276.3497,0.0002598,3.849e-05,0.0,0 STARLINK-5264,1 54206U 22141BB  24166.58470844  .00003849  00000-0  25980-3 0  9997,2 54206  53.2161 281.0804 0001178  83.7629 276.3497 15.08840247 90918,6917.88,95.438,540.56,538.93,0.0
54206.0,STARLINK-5264,PAYLOAD,2024-06-14 17:12:44,15.08849626,0.0001226,53.2166,280.4849,87.3237,272.7895,0.00025719,3.809e-05,0.0,0 STARLINK-5264,1 54206U 22141BB  24166.71718325  .00003809  00000-0  25719-3 0  9997,2 54206  53.2166 280.4849 0001226  87.3237 272.7895 15.08849626 90938,6917.851,95.437,540.564,538.868,0.0
54206.0,STARLINK-5264,PAYLOAD,2024-06-15 13:52:45,15.08851614,0.0001495,53.2175,276.6155,101.5205,258.5955,4.3965e-05,4.12e-06,0.0,0 STARLINK-5264,1 54206U 22141BB  24167.57829954  .00000412  00000-0  43965-4 0  9994,2 54206  53.2175 276.6155 0001495 101.5205 258.5955 15.08851614 91061,6917.845,95.437,540.744,538.676,0.0
54206.0,STARLINK-5264,PAYLOAD,2024-06-15 17:03:31,15.08852476,0.0001388,53.2177,276.0214,99.0013,261.1136,6.4507e-05,7.39e-06,0.0,0 STARLINK-5264,1 54206U 22141BB  24167.71077835  .00000739  00000-0  64507-4 0  9990,2 54206  53.2177 276.0214 0001388  99.0013 261.1136 15.08852476 91082,6917.842,95.437,540.667,538.747,0.0
54206.0,STARLINK-5264,PAYLOAD,2024-06-16 13:43:32,15.08847367,0.000126,53.2162,272.1584,91.547,268.5667,0.00013612,1.88e-05,0.0,0 STARLINK-5264,1 54206U 22141BB  24168.57189944  .00001880  00000-0  13612-3 0  9998,2 54206  53.2162 272.1584 0001260  91.5470 268.5667 15.08847367 91449,6917.858,95.437,540.595,538.851,0.0
54206.0,STARLINK-5264,PAYLOAD,2024-06-17 13:34:19,15.0883847,0.0001292,53.2169,267.6981,97.6763,262.4376,2.3401e-05,8.5e-07,0.0,0 STARLINK-5264,1 54206U 22141BB  24169.56550446  .00000085  00000-0  23401-4 0  9991,2 54206  53.2169 267.6981 0001292  97.6763 262.4376 15.08838470 91594,6917.885,95.438,540.644,538.856,0.0
54206.0,STARLINK-5264,PAYLOAD,2024-06-18 13:25:06,15.08840378,0.0001311,53.2169,263.2402,100.9129,259.2011,4.9875e-05,5.06e-06,0.0,0 STARLINK-5264,1 54206U 22141BB  24170.55910603  .00000506  00000-0  49875-4 0  9998,2 54206  53.2169 263.2402 0001311 100.9129 259.2011 15.08840378 91512,6917.879,95.438,540.651,538.837,0.0
54206.0,STARLINK-5264,PAYLOAD,2024-06-19 05:18:58,15.08834357,0.0001281,53.2168,260.2668,103.8991,256.2144,6.2069e-05,7e-06,0.0,0 STARLINK-5264,1 54206U 22141BB  24171.22151097  .00000700  00000-0  62069-4 0  9993,2 54206  53.2168 260.2668 0001281 103.8991 256.2144 15.08834357 91847,6917.898,95.438,540.649,538.876,0.0
54206.0,STARLINK-5264,PAYLOAD,2024-06-19 13:15:53,15.08869285,0.0001039,53.2169,258.7797,109.8446,250.2658,-0.00040141,-6.676e-05,0.0,0 STARLINK-5264,1 54206U 22141BB  24171.55270136 -.00006676  00000-0 -40141-3 0  9991,2 54206  53.2169 258.7797 0001039 109.8446 250.2658 15.08869285 91667,6917.791,95.436,540.375,538.937,0.0
54206.0,STARLINK-5264,PAYLOAD,2024-06-20 14:42:04,15.08850446,0.0001409,53.2166,254.0211,86.6742,273.4412,4.7968e-05,4.76e-06,0.0,0 STARLINK-5264,1 54206U 22141BB  24172.61254714  .00000476  00000-0  47968-4 0  9998,2 54206  53.2166 254.0211 0001409  86.6742 273.4412 15.08850446 91828,6917.848,95.437,540.688,538.739,0.0
54206.0,STARLINK-5264,PAYLOAD,2024-06-21 05:00:32,15.08838247,0.0001216,53.2166,251.3467,69.9843,290.128,0.0001317,1.809e-05,0.0,0 STARLINK-5264,1 54206U 22141BB  24173.20871474  .00001809  00000-0  13170-3 0  9990,2 54206  53.2166 251.3467 0001216  69.9843 290.1280 15.08838247 92143,6917.886,95.438,540.592,538.91,0.0
54206.0,STARLINK-5264,PAYLOAD,2024-06-21 12:57:28,15.08840133,0.0001163,53.2169,249.8578,79.152,280.9603,7.9736e-05,9.81e-06,0.0,0 STARLINK-5264,1 54206U 22141BB  24173.53991513  .00000981  00000-0  79736-4 0  9994,2 54206  53.2169 249.8578 0001163  79.1520 280.9603 15.08840133 91969,6917.88,95.438,540.55,538.94,0.0
54206.0,STARLINK-5264,PAYLOAD,2024-06-22 11:12:52,15.08846497,0.0001317,53.2168,245.6941,89.516,270.5983,2.4013e-05,9.4e-07,0.0,0 STARLINK-5264,1 54206U 22141BB  24174.46727213  .00000094  00000-0  24013-4 0  9994,2 54206  53.2168 245.6941 0001317  89.5160 270.5983 15.08846497 92339,6917.861,95.437,540.637,538.814,0.0
54206.0,STARLINK-5264,PAYLOAD,2024-06-22 14:23:38,15.08847962,0.000136,53.2165,245.0988,99.65,260.4645,6.2763e-05,7.11e-06,0.0,0 STARLINK-5264,1 54206U 22141BB  24174.59974958  .00000711  00000-0  62763-4 0  9998,2 54206  53.2165 245.0988 0001360  99.6500 260.4645 15.08847962 92127,6917.856,95.437,540.662,538.78,0.0
54206.0,STARLINK-5264,PAYLOAD,2024-06-23 11:03:39,15.08842165,0.0001401,53.2165,241.2323,83.9425,276.1727,6.5471e-05,7.54e-06,0.0,0 STARLINK-5264,1 54206U 22141BB  24175.46087354  .00000754  00000-0  65471-4 0  9996,2 54206  53.2165 241.2323 0001401  83.9425 276.1727 15.08842165 92480,6917.874,95.437,540.708,538.77,0.0
54206.0,STARLINK-5264,PAYLOAD,2024-06-24 09:19:03,15.0884354,0.000148,53.2171,237.0663,103.2461,256.8696,7.762e-05,9.48e-06,0.0,0 STARLINK-5264,1 54206U 22141BB  24176.38822945  .00000948  00000-0  77620-4 0  9995,2 54206  53.2171 237.0663 0001480 103.2461 256.8696 15.08843540 92398,6917.87,95.437,540.758,538.711,0.0
54206.0,STARLINK-5264,PAYLOAD,2024-06-25 10:45:13,15.08839879,0.0001359,53.2167,232.3115,96.7898,263.3248,2.3521e-05,8.6e-07,0.0,0 STARLINK-5264,1 54206U 22141BB  24177.44807336  .00000086  00000-0  23521-4 0  9994,2 54206  53.2167 232.3115 0001359  96.7898 263.3248 15.08839879 92787,6917.881,95.438,540.686,538.806,0.0
54206.0,STARLINK-5264,PAYLOAD,2024-06-26 09:00:37,15.08838743,0.0001386,53.2167,228.1506,101.5377,258.5771,5.4378e-05,5.78e-06,0.0,0 STARLINK-5264,1 54206U 22141BB  24178.37543350  .00000578  00000-0  54378-4 0  9990,2 54206  53.2167 228.1506 0001386 101.5377 258.5771 15.08838743 92697,6917.884,95.438,540.708,538.79,0.0
54206.0,STARLINK-5264,PAYLOAD,2024-06-27 10:26:47,15.08840425,0.0001262,53.216,223.3906,86.7227,273.3909,5.8029e-05,6.36e-06,0.0,0 STARLINK-5264,1 54206U 22141BB  24179.43527498  .00000636  00000-0  58029-4 0  9995,2 54206  53.2160 223.3906 0001262  86.7227 273.3909 15.08840425 93084,6917.879,95.438,540.617,538.871,0.0
